{
  "norad_id": 49049,
  "name": "TIANHUI 1-04",
  "history": [
    {
      "epoch": "2026-03-28T12:55:58.628928Z",
      "apogee_km": 497.0603745738981,
      "perigee_km": 494.21971747185853,
      "latitude_deg": 1.801520869528168e-05,
      "longitude_deg": 138.09483723971772,
      "height_km": 499.66362909824574,
      "semi_major_axis_km": 6873.777046022878,
      "eccentricity": 0.00020663,
      "inclination_deg": 97.2828,
      "raan_deg": 158.047,
      "arg_perigee_deg": 130.767,
      "mean_anomaly_deg": 229.3747,
      "mean_motion_rev_day": 15.23384736
    }
  ]
}